{
  "type": "FeatureCollection",
  "features": [
    {
      "type": "Feature",
      "properties": {
        "norad_id": 40894,
        "name": "GAOFEN-9 01",
        "group": "resource",
        "lat": -54.077783441030746,
        "lon": -161.93304178133815,
        "alt_km": 645.6481697955023,
        "timestamp": "2025-12-15T22:44:28.580683+00:00",
        "meta_object_name": "GAOFEN-9 01",
        "meta_object_id": "2015-047A",
        "meta_epoch": "2025-12-15T08:43:32.954304",
        "meta_mean_motion": 14.82428673,
        "meta_eccentricity": 0.00281904,
        "meta_inclination": 97.6541,
        "meta_ra_of_asc_node": 28.2058,
        "meta_arg_of_pericenter": 25.906,
        "meta_mean_anomaly": 334.3558,
        "meta_ephemeris_type": 0,
        "meta_classification_type": "U",
        "meta_norad_cat_id": 40894,
        "meta_element_set_no": 999,
        "meta_rev_at_epoch": 55295,
        "meta_bstar": 0.00015860261,
        "meta_mean_motion_dot": 1.229e-05,
        "meta_mean_motion_ddot": 0,
        "tle_line1": "1 40894U 15047A   25349.36357586  .00001229  00000+0  15860-3 0  9994",
        "tle_line2": "2 40894  97.6541  28.2058 0028190  25.9060 334.3558 14.82428673552958"
      },
      "geometry": {
        "type": "Point",
        "coordinates": [
          -161.93304178133815,
          -54.077783441030746
        ]
      }
    },
    {
      "type": "Feature",
      "properties": {
        "norad_id": 41026,
        "name": "YAOGAN-28",
        "group": "resource",
        "lat": 29.55160548191116,
        "lon": -48.194795994755495,
        "alt_km": 484.11781687659914,
        "timestamp": "2025-12-15T22:44:28.580693+00:00",
        "meta_object_name": "YAOGAN-28",
        "meta_object_id": "2015-064A",
        "meta_epoch": "2025-12-15T09:28:58.001664",
        "meta_mean_motion": 15.24402859,
        "meta_eccentricity": 0.00124926,
        "meta_inclination": 97.28,
        "meta_ra_of_asc_node": 127.1121,
        "meta_arg_of_pericenter": 117.4498,
        "meta_mean_anomaly": 242.8012,
        "meta_ephemeris_type": 0,
        "meta_classification_type": "U",
        "meta_norad_cat_id": 41026,
        "meta_element_set_no": 999,
        "meta_rev_at_epoch": 56265,
        "meta_bstar": 0.00026551999,
        "meta_mean_motion_dot": 6.453e-05,
        "meta_mean_motion_ddot": 0,
        "tle_line1": "1 41026U 15064A   25349.39511576  .00006453  00000+0  26552-3 0  9999",
        "tle_line2": "2 41026  97.2800 127.1121 0012492 117.4498 242.8012 15.24402859562651"
      },
      "geometry": {
        "type": "Point",
        "coordinates": [
          -48.194795994755495,
          29.55160548191116
        ]
      }
    },
    {
      "type": "Feature",
      "properties": {
        "norad_id": 41038,
        "name": "YAOGAN-29",
        "group": "resource",
        "lat": 51.11405759141738,
        "lon": -156.79847413580674,
        "alt_km": 615.4936773838572,
        "timestamp": "2025-12-15T22:44:28.580704+00:00",
        "meta_object_name": "YAOGAN-29",
        "meta_object_id": "2015-069A",
        "meta_epoch": "2025-12-15T07:35:25.749600",
        "meta_mean_motion": 14.82888391,
        "meta_eccentricity": 1.224e-05,
        "meta_inclination": 98.0225,
        "meta_ra_of_asc_node": 12.4967,
        "meta_arg_of_pericenter": 207.3114,
        "meta_mean_anomaly": 152.8093,
        "meta_ephemeris_type": 0,
        "meta_classification_type": "U",
        "meta_norad_cat_id": 41038,
        "meta_element_set_no": 999,
        "meta_rev_at_epoch": 54337,
        "meta_bstar": 0.00012140414,
        "meta_mean_motion_dot": 9.3e-06,
        "meta_mean_motion_ddot": 0,
        "tle_line1": "1 41038U 15069A   25349.31627025  .00000930  00000+0  12140-3 0  9998",
        "tle_line2": "2 41038  98.0225  12.4967 0000122 207.3114 152.8093 14.82888391543378"
      },
      "geometry": {
        "type": "Point",
        "coordinates": [
          -156.79847413580674,
          51.11405759141738
        ]
      }
    },
    {
      "type": "Feature",
      "properties": {
        "norad_id": 41167,
        "name": "KENT RIDGE 1",
        "group": "resource",
        "lat": 6.5074304158086225,
        "lon": -17.90668503535255,
        "alt_km": 491.78200899977674,
        "timestamp": "2025-12-15T22:44:28.580714+00:00",
        "meta_object_name": "KENT RIDGE 1",
        "meta_object_id": "2015-077B",
        "meta_epoch": "2025-12-14T22:28:15.080160",
        "meta_mean_motion": 15.21656092,
        "meta_eccentricity": 0.00084775,
        "meta_inclination": 14.9785,
        "meta_ra_of_asc_node": 194.8424,
        "meta_arg_of_pericenter": 161.9763,
        "meta_mean_anomaly": 198.086,
        "meta_ephemeris_type": 0,
        "meta_classification_type": "U",
        "meta_norad_cat_id": 41167,
        "meta_element_set_no": 999,
        "meta_rev_at_epoch": 55297,
        "meta_bstar": 0.00014299227,
        "meta_mean_motion_dot": 4.084e-05,
        "meta_mean_motion_ddot": 0,
        "tle_line1": "1 41167U 15077B   25348.93628565  .00004084  00000+0  14299-3 0  9998",
        "tle_line2": "2 41167  14.9785 194.8424 0008477 161.9763 198.0860 15.21656092552973"
      },
      "geometry": {
        "type": "Point",
        "coordinates": [
          -17.90668503535255,
          6.5074304158086225
        ]
      }
    },
    {
      "type": "Feature",
      "properties": {
        "norad_id": 41194,
        "name": "GAOFEN-4",
        "group": "resource",
        "lat": 0.1705641839192597,
        "lon": 171.6059345536322,
        "alt_km": 35773.39295098203,
        "timestamp": "2025-12-15T22:44:28.580729+00:00",
        "meta_object_name": "GAOFEN-4",
        "meta_object_id": "2015-083A",
        "meta_epoch": "2025-12-15T08:40:38.790912",
        "meta_mean_motion": 1.00268547,
        "meta_eccentricity": 0.00033302,
        "meta_inclination": 0.177,
        "meta_ra_of_asc_node": 81.4675,
        "meta_arg_of_pericenter": 102.3672,
        "meta_mean_anomaly": 136.2625,
        "meta_ephemeris_type": 0,
        "meta_classification_type": "U",
        "meta_norad_cat_id": 41194,
        "meta_element_set_no": 999,
        "meta_rev_at_epoch": 3668,
        "meta_bstar": 0,
        "meta_mean_motion_dot": -3.13e-06,
        "meta_mean_motion_ddot": 0,
        "tle_line1": "1 41194U 15083A   25349.36156008 -.00000313  00000+0  00000+0 0  9994",
        "tle_line2": "2 41194   0.1770  81.4675 0003330 102.3672 136.2625  1.00268547 36688"
      },
      "geometry": {
        "type": "Point",
        "coordinates": [
          171.6059345536322,
          0.1705641839192597
        ]
      }
    },
    {
      "type": "Feature",
      "properties": {
        "norad_id": 41240,
        "name": "JASON-3",
        "group": "resource",
        "lat": 52.067717748738495,
        "lon": -174.13298784143203,
        "alt_km": 1309.915775863501,
        "timestamp": "2025-12-15T22:44:28.580741+00:00",
        "meta_object_name": "JASON-3",
        "meta_object_id": "2016-002A",
        "meta_epoch": "2025-12-15T09:23:01.644864",
        "meta_mean_motion": 12.87626679,
        "meta_eccentricity": 0.0007161,
        "meta_inclination": 66.0392,
        "meta_ra_of_asc_node": 152.2501,
        "meta_arg_of_pericenter": 270.9529,
        "meta_mean_anomaly": 89.067,
        "meta_ephemeris_type": 0,
        "meta_classification_type": "U",
        "meta_norad_cat_id": 41240,
        "meta_element_set_no": 999,
        "meta_rev_at_epoch": 46358,
        "meta_bstar": 0.00013410946,
        "meta_mean_motion_dot": -2.8e-07,
        "meta_mean_motion_ddot": 0,
        "tle_line1": "1 41240U 16002A   25349.39099126 -.00000028  00000+0  13411-3 0  9995",
        "tle_line2": "2 41240  66.0392 152.2501 0007161 270.9529  89.0670 12.87626679463584"
      },
      "geometry": {
        "type": "Point",
        "coordinates": [
          -174.13298784143203,
          52.067717748738495
        ]
      }
    },
    {
      "type": "Feature",
      "properties": {
        "norad_id": 41335,
        "name": "SENTINEL-3A",
        "group": "resource",
        "lat": -76.75609620330192,
        "lon": -165.27858677959796,
        "alt_km": 810.6486686783282,
        "timestamp": "2025-12-15T22:44:28.580751+00:00",
        "meta_object_name": "SENTINEL-3A",
        "meta_object_id": "2016-011A",
        "meta_epoch": "2025-12-15T08:03:42.430464",
        "meta_mean_motion": 14.26731706,
        "meta_eccentricity": 9.363e-05,
        "meta_inclination": 98.6313,
        "meta_ra_of_asc_node": 54.3117,
        "meta_arg_of_pericenter": 91.5195,
        "meta_mean_anomaly": 268.6092,
        "meta_ephemeris_type": 0,
        "meta_classification_type": "U",
        "meta_norad_cat_id": 41335,
        "meta_element_set_no": 999,
        "meta_rev_at_epoch": 51184,
        "meta_bstar": 7.5785088e-05,
        "meta_mean_motion_dot": 1.4e-06,
        "meta_mean_motion_ddot": 0,
        "tle_line1": "1 41335U 16011A   25349.33590776  .00000140  00000+0  75785-4 0  9998",
        "tle_line2": "2 41335  98.6313  54.3117 0000936  91.5195 268.6092 14.26731706511846"
      },
      "geometry": {
        "type": "Point",
        "coordinates": [
          -165.27858677959796,
          -76.75609620330192
        ]
      }
    }
  ]
}